NORAD_CAT_ID,OBJECT_NAME,OBJECT_TYPE,EPOCH,MEAN_MOTION,ECCENTRICITY,INCLINATION,RA_OF_ASC_NODE,ARG_OF_PERICENTER,MEAN_ANOMALY,BSTAR,MEAN_MOTION_DOT,MEAN_MOTION_DDOT,TLE_LINE0,TLE_LINE1,TLE_LINE2,SEMIMAJOR_AXIS,PERIOD,APOGEE,PERIGEE,DECAYED
56459.0,STARLINK-6048,PAYLOAD,2024-02-29 14:51:22,14.98331155,0.0003104,70.0,207.7831,270.0492,90.0311,5.6641e-05,5.83e-06,0.0,0 STARLINK-6048,1 56459U 23064M   24060.61900572  .00000583  00000-0  56641-4 0  9998,2 56459  70.0000 207.7831 0003104 270.0492  90.0311 14.98331155 44549,6950.189,96.107,574.212,569.897,0.0
56459.0,STARLINK-6048,PAYLOAD,2024-02-29 19:39:46,14.98334017,0.0002962,70.0003,207.278,267.0667,93.0153,9.7162e-05,1.067e-05,0.0,0 STARLINK-6048,1 56459U 23064M   24060.81928256  .00001067  00000-0  97162-4 0  9990,2 56459  70.0003 207.2780 0002962 267.0667  93.0153 14.98334017 44931,6950.18,96.107,574.104,569.987,0.0
56459.0,STARLINK-6048,PAYLOAD,2024-03-01 11:41:09,14.98306913,0.0003162,69.9997,205.5929,262.8523,97.2277,-0.00024107,-2.967e-05,0.0,0 STARLINK-6048,1 56459U 23064M   24061.48691462 -.00002967  00000-0 -24107-3 0  9990,2 56459  69.9997 205.5929 0003162 262.8523  97.2277 14.98306913 45032,6950.264,96.108,574.327,569.932,0.0
56459.0,STARLINK-6048,PAYLOAD,2024-03-01 14:53:26,14.98299532,0.0002565,70.0023,205.2584,278.1859,81.9009,-0.00027613,-3.383e-05,0.0,0 STARLINK-6048,1 56459U 23064M   24061.62044386 -.00003383  00000-0 -27613-3 0  9991,2 56459  70.0023 205.2584 0002565 278.1859  81.9009 14.98299532 44699,6950.287,96.109,573.935,570.369,0.0
56459.0,STARLINK-6048,PAYLOAD,2024-03-01 19:41:48,14.98323775,0.0003089,70.0003,204.7537,272.1999,87.8807,-3.7199e-05,-5.37e-06,0.0,0 STARLINK-6048,1 56459U 23064M   24061.82070336 -.00000537  00000-0 -37199-4 0  9996,2 56459  70.0003 204.7537 0003089 272.1999  87.8807 14.98323775 45082,6950.212,96.107,574.224,569.93,0.0
56459.0,STARLINK-6048,PAYLOAD,2024-03-02 11:43:08,14.98335086,0.0002982,70.0,203.0687,275.1155,84.9663,2.2113e-06,-6.7e-07,0.0,0 STARLINK-6048,1 56459U 23064M   24062.48829672 -.00000067  00000-0  22113-5 0  9992,2 56459  70.0000 203.0687 0002982 275.1155  84.9663 14.98335086 45182,6950.177,96.107,574.115,569.97,0.0
56459.0,STARLINK-6048,PAYLOAD,2024-03-02 13:19:16,14.98332327,0.000304,70.0012,202.903,276.8302,83.2512,7.1331e-05,7.58e-06,0.0,0 STARLINK-6048,1 56459U 23064M   24062.55505683  .00000758  00000-0  71331-4 0  9994,2 56459  70.0012 202.9030 0003040 276.8302  83.2512 14.98332327 44834,6950.186,96.107,574.164,569.938,0.0
56459.0,STARLINK-6048,PAYLOAD,2024-03-02 19:43:48,14.98340205,0.0002478,70.0015,202.2304,264.0709,96.0167,0.00017679,2.018e-05,0.0,0 STARLINK-6048,1 56459U 23064M   24062.82208793  .00002018  00000-0  17679-3 0  9991,2 56459  70.0015 202.2304 0002478 264.0709  96.0167 14.98340205 45235,6950.161,96.106,573.749,570.304,0.0
56459.0,STARLINK-6048,PAYLOAD,2024-03-03 11:45:09,14.98321871,0.0002619,70.0018,200.5473,268.6331,91.4528,0.00043059,5.047e-05,0.0,0 STARLINK-6048,1 56459U 23064M   24063.48969029  .00005047  00000-0  43059-3 0  9996,2 56459  70.0018 200.5473 0002619 268.6331  91.4528 14.98321871 45333,6950.218,96.108,573.903,570.263,0.0
56459.0,STARLINK-6048,PAYLOAD,2024-03-03 14:57:25,14.98321457,0.0002837,70.0006,200.2089,271.6245,88.4589,0.0003754,4.388e-05,0.0,0 STARLINK-6048,1 56459U 23064M   24063.62321220  .00004388  00000-0  37540-3 0  9992,2 56459  70.0006 200.2089 0002837 271.6245  88.4589 14.98321457 44994,6950.219,96.108,574.056,570.113,0.0
56459.0,STARLINK-6048,PAYLOAD,2024-03-03 19:45:49,14.98330868,0.0002957,70.0002,199.7029,271.1591,88.9229,0.00042681,5.003e-05,0.0,0 STARLINK-6048,1 56459U 23064M   24063.82348419  .00005003  00000-0  42681-3 0  9990,2 56459  70.0002 199.7029 0002957 271.1591  88.9229 14.98330868 45025,6950.19,96.107,574.11,570.0,0.0
56459.0,STARLINK-6048,PAYLOAD,2024-03-04 13:23:17,14.98343343,0.0003192,70.0002,197.8526,273.4012,86.6782,-8.6958e-05,-1.131e-05,0.0,0 STARLINK-6048,1 56459U 23064M   24064.55784420 -.00001131  00000-0 -86958-4 0  9993,2 56459  70.0002 197.8526 0003192 273.4012  86.6782 14.98343343 45134,6950.152,96.106,574.235,569.798,0.0
56459.0,STARLINK-6048,PAYLOAD,2024-03-04 18:11:41,14.98345382,0.0002958,70.0009,197.3488,266.8053,93.2767,-6.2033e-05,-8.33e-06,0.0,0 STARLINK-6048,1 56459U 23064M   24064.75812006 -.00000833  00000-0 -62033-4 0  9993,2 56459  70.0009 197.3488 0002958 266.8053  93.2767 14.98345382 45168,6950.145,96.106,574.066,569.954,0.0
56459.0,STARLINK-6048,PAYLOAD,2024-03-05 13:25:19,14.98325754,0.0002941,70.0008,195.3286,269.3967,90.6855,-0.00015967,-1.997e-05,0.0,0 STARLINK-6048,1 56459U 23064M   24065.55925311 -.00001997  00000-0 -15967-3 0  9991,2 56459  70.0008 195.3286 0002941 269.3967  90.6855 14.98325754 45288,6950.206,96.107,574.115,570.027,0.0
56459.0,STARLINK-6048,PAYLOAD,2024-03-05 18:13:43,14.98323009,0.0002739,70.0014,194.8233,267.2311,92.8535,-0.00016622,-2.075e-05,0.0,0 STARLINK-6048,1 56459U 23064M   24065.75953516 -.00002075  00000-0 -16622-3 0  9998,2 56459  70.0014 194.8233 0002739 267.2311  92.8535 14.98323009 45679,6950.215,96.107,573.983,570.176,0.0
56459.0,STARLINK-6048,PAYLOAD,2024-03-06 11:51:11,14.98332793,0.0003097,70.0003,192.9724,265.6834,94.3971,2.4025e-05,1.94e-06,0.0,0 STARLINK-6048,1 56459U 23064M   24066.49388317  .00000194  00000-0  24025-4 0  9996,2 56459  70.0003 192.9724 0003097 265.6834  94.3971 14.98332793 45784,6950.184,96.107,574.202,569.897,0.0
56459.0,STARLINK-6048,PAYLOAD,2024-03-06 13:27:19,14.98333335,0.0003206,70.0005,192.8045,268.6701,91.409,2.382e-05,1.91e-06,0.0,0 STARLINK-6048,1 56459U 23064M   24066.56064291  .00000191  00000-0  23820-4 0  9995,2 56459  70.0005 192.8045 0003206 268.6701  91.4090 14.98333335 45434,6950.183,96.107,574.276,569.819,0.0
56459.0,STARLINK-6048,PAYLOAD,2024-03-06 18:15:42,14.98343146,0.0003177,70.0004,192.2995,269.521,90.5585,9.7138e-05,1.067e-05,0.0,0 STARLINK-6048,1 56459U 23064M   24066.76091378  .00001067  00000-0  97138-4 0  9999,2 56459  70.0004 192.2995 0003177 269.5210  90.5585 14.98343146 45826,6950.152,96.106,574.225,569.809,0.0
56459.0,STARLINK-6048,PAYLOAD,2024-03-07 15:05:29,14.98320092,0.000232,70.0024,190.1126,251.1349,108.9558,0.00012033,1.343e-05,0.0,0 STARLINK-6048,1 56459U 23064M   24067.62880958  .00001343  00000-0  12033-3 0  9992,2 56459  70.0024 190.1126 0002320 251.1349 108.9558 14.98320092 45593,6950.224,96.108,573.701,570.476,0.0
56459.0,STARLINK-6048,PAYLOAD,2024-03-08 11:55:11,14.98353732,0.0003016,70.0003,187.9231,266.6821,93.3993,0.00012933,1.451e-05,0.0,0 STARLINK-6048,1 56459U 23064M   24068.49666271  .00001451  00000-0  12933-3 0  9997,2 56459  70.0003 187.9231 0003016 266.6821  93.3993 14.98353732 46082,6950.12,96.105,574.081,569.888,0.0
56459.0,STARLINK-6048,PAYLOAD,2024-03-09 11:57:16,14.98294738,0.0002994,70.0004,185.3976,272.236,87.8456,-0.00037514,-4.562e-05,0.0,0 STARLINK-6048,1 56459U 23064M   24069.49810985 -.00004562  00000-0 -37514-3 0  9991,2 56459  70.0004 185.3976 0002994 272.2360  87.8456 14.98294738 46235,6950.302,96.109,574.248,570.086,0.0
56459.0,STARLINK-6048,PAYLOAD,2024-03-09 13:33:24,14.98294833,0.0002923,70.0004,185.2293,271.4897,88.5928,-0.00036947,-4.495e-05,0.0,0 STARLINK-6048,1 56459U 23064M   24069.56487098 -.00004495  00000-0 -36947-3 0  9998,2 56459  70.0004 185.2293 0002923 271.4897  88.5928 14.98294833 45882,6950.302,96.109,574.198,570.135,0.0
56459.0,STARLINK-6048,PAYLOAD,2024-03-09 18:21:49,14.98294699,0.0002933,70.0004,184.7242,272.9901,87.0923,-0.00035684,-4.344e-05,0.0,0 STARLINK-6048,1 56459U 23064M   24069.76515476 -.00004344  00000-0 -35684-3 0  9992,2 56459  70.0004 184.7242 0002933 272.9901  87.0923 14.98294699 45916,6950.302,96.109,574.206,570.129,0.0
56459.0,STARLINK-6048,PAYLOAD,2024-03-10 00:46:20,14.98310653,0.0003605,70.0005,184.0512,273.1643,86.9103,-0.0001802,-2.242e-05,0.0,0 STARLINK-6048,1 56459U 23064M   24070.03218265 -.00002242  00000-0 -18020-3 0  9990,2 56459  70.0005 184.0512 0003605 273.1643  86.9103 14.98310653 46315,6950.253,96.108,574.623,569.612,0.0
56459.0,STARLINK-6048,PAYLOAD,2024-03-10 13:35:24,14.98334309,0.0003651,69.999,182.7035,279.0205,81.0541,-0.00016298,-2.038e-05,0.0,0 STARLINK-6048,1 56459U 23064M   24070.56625082 -.00002038  00000-0 -16298-3 0  9995,2 56459  69.9990 182.7035 0003651 279.0205  81.0541 14.98334309 46394,6950.18,96.107,574.582,569.507,0.0
56459.0,STARLINK-6048,PAYLOAD,2024-03-10 16:47:39,14.98336316,0.0002813,70.0003,182.3682,268.2257,91.8579,-7.9831e-05,-1.046e-05,0.0,0 STARLINK-6048,1 56459U 23064M   24070.69976676 -.00001046  00000-0 -79831-4 0  9998,2 56459  70.0003 182.3682 0002813 268.2257  91.8579 14.98336316 46055,6950.173,96.107,573.993,570.083,0.0
56459.0,STARLINK-6048,PAYLOAD,2024-03-11 13:37:24,14.98325635,0.0003202,70.0003,180.1799,280.1123,79.9675,0.00054338,6.396e-05,0.0,0 STARLINK-6048,1 56459U 23064M   24071.56763953  .00006396  00000-0  54338-3 0  9992,2 56459  70.0003 180.1799 0003202 280.1123  79.9675 14.98325635 46548,6950.206,96.107,574.297,569.846,0.0
56459.0,STARLINK-6048,PAYLOAD,2024-03-12 13:39:25,14.98336967,0.0003226,70.0002,177.6544,280.4928,79.5867,5.4817e-05,5.61e-06,0.0,0 STARLINK-6048,1 56459U 23064M   24072.56904529  .00000561  00000-0  54817-4 0  9990,2 56459  70.0002 177.6544 0003226 280.4928  79.5867 14.98336967 46693,6950.171,96.107,574.278,569.794,0.0
56459.0,STARLINK-6048,PAYLOAD,2024-03-13 13:41:25,14.98344547,0.0003348,70.0004,175.1312,279.5762,80.5019,-9.1055e-05,-1.18e-05,0.0,0 STARLINK-6048,1 56459U 23064M   24073.57043752 -.00001180  00000-0 -91055-4 0  9999,2 56459  70.0004 175.1312 0003348 279.5762  80.5019 14.98344547 46842,6950.148,96.106,574.34,569.686,0.0
56459.0,STARLINK-6048,PAYLOAD,2024-03-14 05:42:46,14.98334768,0.0003428,70.0003,173.4483,278.9233,81.1538,1.7356e-05,1.14e-06,0.0,0 STARLINK-6048,1 56459U 23064M   24074.23803642  .00000114  00000-0  17356-4 0  9991,2 56459  70.0003 173.4483 0003428 278.9233  81.1538 14.98334768 46584,6950.178,96.107,574.426,569.661,0.0
